{"type": "FeatureCollection", "features": [ {"type": "Feature", "properties": {"norad_id": 44476, "name": "INTELSAT 39 (IS-39)", "group": "intelsat", "lat": 0.034455650461298684, "lon": 64.52747587832422, "alt_km": 35786.39497830948, "timestamp": "2025-12-09T18:55:16.906686+00:00", "meta": {"OBJECT_NAME": "INTELSAT 39 (IS-39)", "OBJECT_ID": "2019-049B", "EPOCH": "2025-12-09T13:52:05.984256", "MEAN_MOTION": 1.00270059, "ECCENTRICITY": 0.00010144, "INCLINATION": 0.0164, "RA_OF_ASC_NODE": 318.5209, "ARG_OF_PERICENTER": 194.0541, "MEAN_ANOMALY": 195.9656, "EPHEMERIS_TYPE": 0, "CLASSIFICATION_TYPE": "U", "NORAD_CAT_ID": 44476, "ELEMENT_SET_NO": 999, "REV_AT_EPOCH": 2322, "BSTAR": 0, "MEAN_MOTION_DOT": 3.6e-07, "MEAN_MOTION_DDOT": 0}, "tle": {"line1": "1 44476U 19049B   25343.57784704  .00000036  00000+0  00000+0 0  9994", "line2": "2 44476   0.0164 318.5209 0001014 194.0541 195.9656  1.00270059 23220"}}, "geometry": {"type": "Point", "coordinates": [64.52747587832422, 0.034455650461298684]}}, {"type": "Feature", "properties": {"norad_id": 46114, "name": "GALAXY 30 (G-30)", "group": "intelsat", "lat": -0.0315968108212186, "lon": -122.42233263582634, "alt_km": 35776.661616074074, "timestamp": "2025-12-09T18:55:16.906698+00:00", "meta": {"OBJECT_NAME": "GALAXY 30 (G-30)", "OBJECT_ID": "2020-056C", "EPOCH": "2025-12-09T09:54:15.136416", "MEAN_MOTION": 1.00271447, "ECCENTRICITY": 0.0002386, "INCLINATION": 0.0167, "RA_OF_ASC_NODE": 3.1394, "ARG_OF_PERICENTER": 254.3856, "MEAN_ANOMALY": 204.4379, "EPHEMERIS_TYPE": 0, "CLASSIFICATION_TYPE": "U", "NORAD_CAT_ID": 46114, "ELEMENT_SET_NO": 999, "REV_AT_EPOCH": 1939, "BSTAR": 0, "MEAN_MOTION_DOT": 3.9e-07, "MEAN_MOTION_DDOT": 0}, "tle": {"line1": "1 46114U 20056C   25343.41267519  .00000039  00000+0  00000+0 0  9991", "line2": "2 46114   0.0167   3.1394 0002386 254.3856 204.4379  1.00271447 19391"}}, "geometry": {"type": "Point", "coordinates": [-122.42233263582634, -0.0315968108212186]}}, {"type": "Feature", "properties": {"norad_id": 54026, "name": "GALAXY 33 (G-33)", "group": "intelsat", "lat": -0.02954844893515683, "lon": -130.4136827643989, "alt_km": 35777.0847366791, "timestamp": "2025-12-09T18:55:16.906709+00:00", "meta": {"OBJECT_NAME": "GALAXY 33 (G-33)", "OBJECT_ID": "2022-128A", "EPOCH": "2025-12-09T12:02:03.515712", "MEAN_MOTION": 1.00272257, "ECCENTRICITY": 0.00022285, "INCLINATION": 0.0135, "RA_OF_ASC_NODE": 306.5722, "ARG_OF_PERICENTER": 303.2517, "MEAN_ANOMALY": 236.1854, "EPHEMERIS_TYPE": 0, "CLASSIFICATION_TYPE": "U", "NORAD_CAT_ID": 54026, "ELEMENT_SET_NO": 999, "REV_AT_EPOCH": 1184, "BSTAR": 0, "MEAN_MOTION_DOT": 8.1e-07, "MEAN_MOTION_DDOT": 0}, "tle": {"line1": "1 54026U 22128A   25343.50142958  .00000081  00000+0  00000+0 0  9990", "line2": "2 54026   0.0135 306.5722 0002228 303.2517 236.1854  1.00272257 11847"}}, "geometry": {"type": "Point", "coordinates": [-130.4136827643989, -0.02954844893515683]}}, {"type": "Feature", "properties": {"norad_id": 54027, "name": "GALAXY 34 (G-34)", "group": "intelsat", "lat": -0.04393355637488411, "lon": -126.34343412704348, "alt_km": 35781.13506705546, "timestamp": "2025-12-09T18:55:16.906721+00:00", "meta": {"OBJECT_NAME": "GALAXY 34 (G-34)", "OBJECT_ID": "2022-128B", "EPOCH": "2025-12-09T14:45:08.313120", "MEAN_MOTION": 1.00270553, "ECCENTRICITY": 0.00012812, "INCLINATION": 0.025, "RA_OF_ASC_NODE": 324.9472, "ARG_OF_PERICENTER": 281.4096, "MEAN_ANOMALY": 284.6001, "EPHEMERIS_TYPE": 0, "CLASSIFICATION_TYPE": "U", "NORAD_CAT_ID": 54027, "ELEMENT_SET_NO": 999, "REV_AT_EPOCH": 1201, "BSTAR": 0, "MEAN_MOTION_DOT": 0, "MEAN_MOTION_DDOT": 0}, "tle": {"line1": "1 54027U 22128B   25343.61467955  .00000000  00000+0  00000+0 0  9991", "line2": "2 54027   0.0250 324.9472 0001281 281.4096 284.6001  1.00270553 12018"}}, "geometry": {"type": "Point", "coordinates": [-126.34343412704348, -0.04393355637488411]}}, {"type": "Feature", "properties": {"norad_id": 54243, "name": "GALAXY 31 (G-31)", "group": "intelsat", "lat": -0.016993270346058548, "lon": -118.41473733489579, "alt_km": 35778.95937311346, "timestamp": "2025-12-09T18:55:16.906732+00:00", "meta": {"OBJECT_NAME": "GALAXY 31 (G-31)", "OBJECT_ID": "2022-153A", "EPOCH": "2025-12-09T12:40:55.451712", "MEAN_MOTION": 1.00271959, "ECCENTRICITY": 0.00019032, "INCLINATION": 0.0189, "RA_OF_ASC_NODE": 256.7344, "ARG_OF_PERICENTER": 13.663, "MEAN_ANOMALY": 237.3558, "EPHEMERIS_TYPE": 0, "CLASSIFICATION_TYPE": "U", "NORAD_CAT_ID": 54243, "ELEMENT_SET_NO": 999, "REV_AT_EPOCH": 523, "BSTAR": 0, "MEAN_MOTION_DOT": 1.5e-07, "MEAN_MOTION_DDOT": 0}, "tle": {"line1": "1 54243U 22153A   25343.52841958  .00000015  00000+0  00000+0 0  9994", "line2": "2 54243   0.0189 256.7344 0001903  13.6630 237.3558  1.00271959  5238"}}, "geometry": {"type": "Point", "coordinates": [-118.41473733489579, -0.016993270346058548]}}, {"type": "Feature", "properties": {"norad_id": 54244, "name": "GALAXY 32 (G-32)", "group": "intelsat", "lat": -0.02666922059162323, "lon": -88.4321809092949, "alt_km": 35777.32423899409, "timestamp": "2025-12-09T18:55:16.906744+00:00", "meta": {"OBJECT_NAME": "GALAXY 32 (G-32)", "OBJECT_ID": "2022-153B", "EPOCH": "2025-12-09T12:24:44.332992", "MEAN_MOTION": 1.00270521, "ECCENTRICITY": 0.00027242, "INCLINATION": 0.0086, "RA_OF_ASC_NODE": 338.62, "ARG_OF_PERICENTER": 330.4778, "MEAN_ANOMALY": 224.5904, "EPHEMERIS_TYPE": 0, "CLASSIFICATION_TYPE": "U", "NORAD_CAT_ID": 54244, "ELEMENT_SET_NO": 999, "REV_AT_EPOCH": 1124, "BSTAR": 0, "MEAN_MOTION_DOT": -1.72e-06, "MEAN_MOTION_DDOT": 0}, "tle": {"line1": "1 54244U 22153B   25343.51717978 -.00000172  00000+0  00000+0 0  9993", "line2": "2 54244   0.0086 338.6200 0002724 330.4778 224.5904  1.00270521 11246"}}, "geometry": {"type": "Point", "coordinates": [-88.4321809092949, -0.02666922059162323]}}, {"type": "Feature", "properties": {"norad_id": 54741, "name": "GALAXY 35 (G-35)", "group": "intelsat", "lat": -0.016354448147087818, "lon": -90.49501073989362, "alt_km": 35775.15050328779, "timestamp": "2025-12-09T18:55:16.906755+00:00", "meta": {"OBJECT_NAME": "GALAXY 35 (G-35)", "OBJECT_ID": "2022-170A", "EPOCH": "2025-12-09T12:23:46.557312", "MEAN_MOTION": 1.00271041, "ECCENTRICITY": 0.00026435, "INCLINATION": 0.0265, "RA_OF_ASC_NODE": 90.9094, "ARG_OF_PERICENTER": 174.1639, "MEAN_ANOMALY": 266.2888, "EPHEMERIS_TYPE": 0, "CLASSIFICATION_TYPE": "U", "NORAD_CAT_ID": 54741, "ELEMENT_SET_NO": 999, "REV_AT_EPOCH": 1099, "BSTAR": 0, "MEAN_MOTION_DOT": -1.6e-06, "MEAN_MOTION_DDOT": 0}, "tle": {"line1": "1 54741U 22170A   25343.51651108 -.00000160  00000+0  00000+0 0  9993", "line2": "2 54741   0.0265  90.9094 0002643 174.1639 266.2888  1.00271041 10998"}}, "geometry": {"type": "Point", "coordinates": [-90.49501073989362, -0.016354448147087818]}}, {"type": "Feature", "properties": {"norad_id": 54742, "name": "GALAXY 36 (G-36)", "group": "intelsat", "lat": -0.02336824545720367, "lon": -86.41472651916578, "alt_km": 35784.044094592275, "timestamp": "2025-12-09T18:55:16.906766+00:00", "meta": {"OBJECT_NAME": "GALAXY 36 (G-36)", "OBJECT_ID": "2022-170B", "EPOCH": "2025-12-09T12:25:42.117312", "MEAN_MOTION": 1.00270711, "ECCENTRICITY": 5.692e-05, "INCLINATION": 0.009, "RA_OF_ASC_NODE": 28.1287, "ARG_OF_PERICENTER": 256.8245, "MEAN_ANOMALY": 250.976, "EPHEMERIS_TYPE": 0, "CLASSIFICATION_TYPE": "U", "NORAD_CAT_ID": 54742, "ELEMENT_SET_NO": 999, "REV_AT_EPOCH": 1087, "BSTAR": 0, "MEAN_MOTION_DOT": -1.83e-06, "MEAN_MOTION_DDOT": 0}, "tle": {"line1": "1 54742U 22170B   25343.51784858 -.00000183  00000+0  00000+0 0  9998", "line2": "2 54742   0.0090  28.1287 0000569 256.8245 250.9760  1.00270711 10877"}}, "geometry": {"type": "Point", "coordinates": [-86.41472651916578, -0.02336824545720367]}}, {"type": "Feature", "properties": {"norad_id": 57493, "name": "GALAXY 37 (G-37)", "group": "intelsat", "lat": -0.029585840310658, "lon": -124.41828060781646, "alt_km": 35777.42697717301, "timestamp": "2025-12-09T18:55:16.906777+00:00", "meta": {"OBJECT_NAME": "GALAXY 37 (G-37)", "OBJECT_ID": "2023-112A", "EPOCH": "2025-12-09T12:59:43.247328", "MEAN_MOTION": 1.00271682, "ECCENTRICITY": 0.00023291, "INCLINATION": 0.0108, "RA_OF_ASC_NODE": 343.5246, "ARG_OF_PERICENTER": 280.5272, "MEAN_ANOMALY": 242.4124, "EPHEMERIS_TYPE": 0, "CLASSIFICATION_TYPE": "U", "NORAD_CAT_ID": 57493, "ELEMENT_SET_NO": 999, "REV_AT_EPOCH": 864, "BSTAR": 0, "MEAN_MOTION_DOT": 5e-07, "MEAN_MOTION_DDOT": 0}, "tle": {"line1": "1 57493U 23112A   25343.54147277  .00000050  00000+0  00000+0 0  9994", "line2": "2 57493   0.0108 343.5246 0002329 280.5272 242.4124  1.00271682  8642"}}, "geometry": {"type": "Point", "coordinates": [-124.41828060781646, -0.029585840310658]}}]}